OBJECT_NAME,OBJECT_ID,EPOCH,MEAN_MOTION,ECCENTRICITY,INCLINATION,RA_OF_ASC_NODE,ARG_OF_PERICENTER,MEAN_ANOMALY,EPHEMERIS_TYPE,CLASSIFICATION_TYPE,NORAD_CAT_ID,ELEMENT_SET_NO,REV_AT_EPOCH,BSTAR,MEAN_MOTION_DOT,MEAN_MOTION_DDOT
UNKNOWN,1976-126,2024-07-07T06:08:56.993280,13.48064568,.0703234,65.6703,177.9430,100.3394,267.7646,0,U,87553,999,52052,.9487E-3,.272E-4,0
UNKNOWN,1973-086,2024-07-06T02:58:58.471968,13.21075480,.0073685,101.7628,332.6106,109.1631,251.7473,0,U,87557,999,49556,.1058E-1,.4336E-4,0
UNKNOWN,1976-077,2024-07-02T15:50:43.110816,12.32144404,.0176076,102.0780,249.3824,179.1550,334.8320,0,U,87561,999,47739,-.25167E-4,-.47E-6,0
UNKNOWN,1999-025,2024-07-05T06:11:42.481248,14.03001380,.0178544,99.8920,124.1008,151.7674,209.3309,0,U,87565,999,54265,.99493E-3,.1728E-4,0
UNKNOWN,1999-025,2024-07-05T09:11:57.514848,12.68513070,.0055671,101.9389,339.5026,204.7462,183.3226,0,U,87569,999,49185,.75057E-4,-.34E-6,0
UNKNOWN,1993-036,2024-07-05T17:24:35.098272,14.39481898,.0020379,74.0252,353.3761,159.2171,200.9817,0,U,87587,999,55824,.13492E-3,.395E-5,0
UNKNOWN,1999-025,2024-07-06T09:02:29.699232,14.09051290,.002618,98.8493,230.0328,326.4756,44.2520,0,U,87590,999,8036,.47009E-3,.774E-5,0
UNKNOWN,1976-067,2024-07-06T19:00:00.815904,12.45970058,.0636424,66.0367,98.3619,1.0617,30.0874,0,U,87616,999,47093,.97915E-3,.236E-5,0
UNKNOWN,1999-025,2024-07-07T04:18:39.654432,14.59846337,.0117989,98.6767,91.9091,74.2919,287.1258,0,U,87624,999,50359,.102E-2,.5325E-4,0
UNKNOWN,,2024-07-07T09:51:07.803936,14.43206293,.0040846,100.2724,242.2956,353.8715,6.1964,0,U,87650,999,376,.17551E-2,.5906E-4,0
UNKNOWN,1975-052,2024-07-07T06:35:02.803200,13.06930149,.0213235,99.7765,114.3257,84.6479,67.9348,0,U,87664,999,47299,.22926E-2,.813E-5,0
UNKNOWN,1993-016,2024-07-07T00:39:58.413888,14.23160783,.0060141,70.8603,54.5085,350.5763,9.4229,0,U,87672,999,54980,.12394E-2,.2805E-4,0
UNKNOWN,,2024-07-01T22:30:07.884864,13.69296307,.0155794,66.7368,269.5932,154.6846,206.1961,0,U,87681,999,52938,.18139E-2,.1643E-4,0
UNKNOWN,1976-126,2024-07-06T14:02:59.906976,13.89500680,.0638011,65.7964,267.0790,312.4144,42.4590,0,U,87690,999,53422,.59744E-3,.3908E-4,0
UNKNOWN,,2024-07-06T09:24:28.998720,14.56009414,.0120894,98.6413,341.7155,84.8191,305.8937,0,U,87706,999,50196,.10659E-2,.5128E-4,0
UNKNOWN,1981-053,2024-07-06T11:06:33.216480,14.54435066,.0022149,82.8900,357.3587,337.4706,22.5519,0,U,87725,999,55665,.25805E-2,.11039E-3,0
UNKNOWN,,2024-07-05T22:28:45.756480,13.74359147,.0030464,82.9445,262.3763,29.1465,331.1383,0,U,87730,999,51324,.10583E-3,.115E-5,0
UNKNOWN,1999-025,2024-07-06T02:46:34.995648,13.72191126,.0134209,99.4535,63.2852,115.3945,246.1165,0,U,87737,999,53190,.12298E-3,.76E-6,0
UNKNOWN,1976-126,2024-07-07T07:59:37.805280,14.19372131,.0431862,65.6771,148.1707,340.0292,172.6107,0,U,87764,999,54438,.24661E-2,.13287E-3,0
UNKNOWN,1975-052,2024-07-06T22:53:32.477568,13.19305253,.0120447,100.7517,7.4274,108.9824,252.4385,0,U,87771,999,46601,.30292E-3,.79E-6,0
UNKNOWN,1973-086,2024-07-07T04:24:31.559040,12.96159314,.0060312,102.3270,348.1823,190.5945,169.3881,0,U,87782,999,50003,.10207E-1,.2881E-4,0
UNKNOWN,1970-025,2024-07-07T03:27:55.297728,13.13495684,.0247516,99.6971,341.7943,149.6160,211.9566,0,U,87843,999,49533,.42192E-2,.1762E-4,0
UNKNOWN,,2024-07-06T23:16:22.600992,12.86774070,.0581984,98.8601,244.5737,18.4062,343.7173,0,U,87845,999,49778,.14276E-2,.717E-5,0
UNKNOWN,,2024-07-05T22:59:02.250816,14.34109119,.0038277,99.1545,267.7883,4.0652,356.0835,0,U,87878,999,53588,.1272E-2,.3541E-4,0
UNKNOWN,1999-025,2024-07-06T01:27:21.445632,14.14683460,.029119,99.2015,117.3583,49.1097,313.4911,0,U,87883,999,49816,.92117E-3,.2618E-4,0
UNKNOWN,1999-025,2024-07-06T18:25:39.158976,14.05245196,.0156581,98.6984,306.2054,102.7022,259.1700,0,U,87884,999,54475,.37417E-3,.635E-5,0
UNKNOWN,1999-025,2024-07-06T04:54:52.636032,14.49421323,.0100565,98.8859,92.3544,338.7966,20.9071,0,U,87898,999,55310,.43522E-2,.1775E-3,0
UNKNOWN,,2024-07-03T15:36:11.066112,13.72969394,.0032019,82.9374,329.2057,62.8827,310.9281,0,U,87934,999,53198,.97426E-4,.106E-5,0
UNKNOWN,,2024-07-06T05:22:42.553632,15.24649969,.0065313,99.0383,291.3966,329.2123,30.5285,0,U,87942,999,56848,.17486E-2,.46025E-3,0
UNKNOWN,1977-065,2024-07-06T13:27:29.301120,12.32278209,.0919448,28.6249,299.1975,64.9975,304.3179,0,U,87991,999,45820,.74692E-3,.434E-5,0
UNKNOWN,,2024-06-20T00:05:21.986880,14.35457875,.0014965,74.0475,286.4170,119.9307,240.3334,0,U,89003,999,55393,.15251E-3,.413E-5,0
UNKNOWN,,2024-07-07T07:58:14.902752,14.40173284,.0205831,97.8891,52.2293,195.9456,163.5191,0,U,89005,999,45859,.59473E-3,.2368E-4,0
UNKNOWN,,2024-07-07T09:30:51.252192,14.85592664,.0025553,98.1073,71.0860,241.6627,118.2010,0,U,89029,999,57312,.38759E-3,.3315E-4,0
UNKNOWN,,2024-07-06T07:21:41.128128,14.95315719,.0380643,80.9722,146.6262,97.3462,267.1173,0,U,89067,999,50729,.10868E-2,.55641E-3,0
UNKNOWN,,2024-07-05T15:59:32.836128,13.03835364,.0146516,100.4039,136.5118,198.9740,160.5871,0,U,89101,999,48641,-.76518E-3,-.299E-5,0
UNKNOWN,,2024-07-07T07:03:19.799424,8.81577679,.298375,63.4599,296.2671,319.9413,21.5085,0,U,89132,999,27881,.23839E-2,.208E-4,0
UNKNOWN,,2024-07-07T06:19:23.240352,14.54982007,.0104794,98.2241,115.7903,245.3469,113.6786,0,U,89146,999,55251,.62077E-3,.2826E-4,0
UNKNOWN,,2024-07-07T06:57:31.798368,14.90005435,.0099569,97.6916,196.6802,59.5776,301.5235,0,U,89161,999,46952,.15472E-2,.1636E-3,0
UNKNOWN,1981-053,2024-07-07T04:34:37.574688,14.27445173,.0358573,82.0728,346.3210,70.7419,293.2184,0,U,89172,999,52666,.2102E-2,.10323E-3,0
UNKNOWN,,2024-07-03T14:22:56.217792,13.73582645,.0032905,82.9224,299.9180,166.8881,193.3137,0,U,89177,999,99059,.11285E-3,.121E-5,0
UNKNOWN,,2024-07-07T13:48:34.333632,13.80486578,.0133035,99.2214,106.9316,107.3980,254.1770,0,U,89183,999,53475,.63239E-3,.666E-5,0
UNKNOWN,,2024-07-05T20:00:43.287840,14.54192719,.0016437,98.4331,32.2547,340.8714,19.1863,0,U,89184,999,41516,.29058E-2,.12294E-3,0
UNKNOWN,,2024-07-06T00:48:44.642592,14.38426430,.0022627,98.6526,222.7351,244.1479,115.7374,0,U,89206,999,41112,.33017E-2,.10071E-3,0
UNKNOWN,,2024-07-07T12:49:09.309792,13.90451768,.0231394,98.8430,82.6997,120.0484,242.3847,0,U,89213,999,37992,.39463E-3,.569E-5,0
UNKNOWN,,2024-06-21T11:47:39.839712,13.83106334,.0103403,100.3431,69.4070,332.4110,27.1576,0,U,89218,999,51901,.29327E-2,.3294E-4,0
UNKNOWN,,2024-07-07T12:54:46.898784,9.00692981,.2966724,62.4821,314.4067,52.9954,330.7360,0,U,89251,999,32535,.59479E-2,.10347E-3,0
UNKNOWN,,2024-07-06T23:53:38.711616,13.40207278,.0357798,98.6293,19.0715,351.9484,7.6000,0,U,89255,999,42500,.15403E-2,.1187E-4,0
UNKNOWN,,2024-07-06T23:20:28.955040,14.41096485,.0012058,98.1459,200.8397,312.9418,47.0759,0,U,89261,999,45831,.3529E-3,.1096E-4,0
UNKNOWN,,2024-07-04T09:03:48.764736,14.90830254,.0005296,99.3236,56.0886,269.6585,90.4021,0,U,89281,999,55926,.62644E-2,.62156E-3,0
UNKNOWN,,2024-06-15T11:06:50.484384,8.91987223,.2704123,84.6574,239.9866,311.3157,37.4206,0,U,89304,999,38954,.17292E-1,.4291E-4,0
UNKNOWN,,2024-06-13T03:45:21.722688,2.50021713,.7059456,19.2341,64.7405,172.3110,211.0927,0,U,89314,999,7481,.77387E-2,.5013E-4,0
UNKNOWN,,2024-07-07T10:37:40.946592,12.95943256,.003049,90.2443,355.6066,196.7280,163.2837,0,U,89349,999,41096,.14789E-2,.428E-5,0
UNKNOWN,,2024-07-07T08:32:40.798464,13.55954907,.0047913,100.4737,162.5703,340.0417,19.8843,0,U,89379,999,50964,.6823E-2,.4759E-4,0
UNKNOWN,,2024-07-07T10:21:42.559776,12.97750656,.0029736,90.2444,354.0136,154.7953,235.3839,0,U,89403,999,40992,-.92017E-4,-.19E-6,0
UNKNOWN,,2024-07-01T08:46:59.317248,15.15522136,.0125951,99.4854,13.9397,191.0555,168.7899,0,U,89483,999,42032,.32141E-2,.75075E-3,0
UNKNOWN,,2024-07-07T05:50:38.066496,8.95323477,.2728504,84.5041,292.7658,334.5638,14.2385,0,U,89484,999,30824,.57357E-2,.177E-4,0
UNKNOWN,,2024-07-07T07:37:01.610400,14.41138791,.0090876,98.4236,138.2379,327.3608,32.1984,0,U,89490,999,40589,.68473E-2,.2321E-3,0
UNKNOWN,,2024-07-04T02:12:00.439200,13.99023363,.002814,82.5281,126.2862,52.6541,307.7185,0,U,89492,999,49378,.28774E-2,.4187E-4,0
UNKNOWN,,2024-07-04T22:51:41.307552,14.11245906,.0089169,99.0635,243.4591,86.3219,274.8143,0,U,89493,999,38963,.21364E-2,.396E-4,0
UNKNOWN,,2024-07-07T14:36:24.748128,14.11220611,.0089561,99.0623,246.0852,78.9999,282.1230,0,U,89494,999,38986,.17345E-2,.3206E-4,0
UNKNOWN,,2024-07-07T09:19:51.423168,12.95726862,.00314494,90.2469,332.5578,179.6472,180.4676,0,U,270000,999,21817,.19707284E-2,.567E-5,0
UNKNOWN,,2024-07-04T13:57:55.488672,12.45541838,.00449476,101.7854,299.4440,133.7856,226.6943,0,U,270001,999,20944,.30817598E-3,0,0
UNKNOWN,,2024-07-06T23:31:04.679328,13.03638384,.05148205,99.6471,273.8727,10.0751,351.0223,0,U,270003,999,21900,.86444992E-3,.478E-5,0
UNKNOWN,,2024-07-05T17:44:46.755456,12.23750285,.01641773,101.6400,3.0947,42.5668,318.7982,0,U,270004,999,20595,.57321812E-3,.25E-6,0
UNKNOWN,,2024-07-06T05:28:07.493664,12.13903080,.03535082,103.0609,357.9665,338.7393,19.9273,0,U,270005,999,20389,.17051127E-1,.1936E-4,0
UNKNOWN,,2024-07-06T13:56:36.881952,12.38791538,.0093777,102.1682,144.4850,155.4537,205.1030,0,U,270006,999,20858,.13501071E-3,-.27E-6,0
UNKNOWN,,2024-07-06T08:42:07.269696,12.91273607,.05640143,31.9947,218.9102,359.3122,0.6670,0,U,270007,999,21774,.32744989E-3,.198E-5,0
UNKNOWN,,2024-07-05T18:05:49.994304,12.97272612,.00356283,90.2498,10.9879,135.3779,225.0219,0,U,270008,999,21820,.12698394E-3,.45E-6,0
UNKNOWN,,2024-07-04T03:20:09.469536,11.90701318,.00552745,82.5025,144.7593,45.9277,314.6303,0,U,270009,999,20014,.28835804E-3,.3E-6,0
UNKNOWN,,2024-07-05T21:12:52.490304,12.74675523,.0398869,103.9428,62.3236,3.8513,356.5487,0,U,270010,999,21332,.14483748E-1,.4186E-4,0
UNKNOWN,,2024-07-05T21:31:13.071648,13.30292985,.00268713,100.6289,61.9460,88.2960,272.1237,0,U,270011,999,22098,.27194809E-1,.1276E-3,0
UNKNOWN,,2024-07-07T09:49:26.953536,12.96714454,.00358853,90.2413,343.8993,140.4243,219.9507,0,U,270012,999,21834,.14964731E-2,.439E-5,0
